KUIPER-00079            
1 64826U 25151L   25354.14232514  .00003230  00000+0  45269-3 0  9997
2 64826  51.9003 292.3280 0011843 339.9441  20.1054 14.79896382 24726
KUIPER-00080            
1 64827U 25151M   25354.10857666  .00005768  00000+0  78435-3 0  9994
2 64827  51.9006 292.4818 0006054   0.8778 359.2194 14.79964142 23521
KUIPER-00082            
1 64828U 25151N   25354.15573407  .00003574  00000+0  49744-3 0  9992
2 64828  51.9020 279.7887 0005454  27.9691 332.1564 14.79952232 23707
KUIPER-00083            
1 64829U 25151P   25354.01253516  .00002108  00000+0  30515-3 0  9992
2 64829  51.9020 287.9154 0011407 339.1380  20.9115 14.79973271 24761
KUIPER-00084            
1 64830U 25151Q   25354.13620568  .00002379  00000+0  34005-3 0  9990
2 64830  51.9016 297.3483 0011859 314.2523  45.7465 14.80043501 23456
KUIPER-00085            
1 64831U 25151R   25354.05454846  .00003629  00000+0  50556-3 0  9994
2 64831  51.9042 280.2514 0007795 358.7382   1.3559 14.79866659 23684
KUIPER-00086            
1 64832U 25151S   25354.11122370  .00003632  00000+0  50501-3 0  9990
2 64832  51.9021 289.9869 0010913 339.0131  21.0382 14.79932763 23550
KUIPER-00087            
1 64833U 25151T   25354.06150925  .00001988  00000+0  28872-3 0  9990
2 64833  51.8997 272.6877 0001323  44.0115 316.0953 14.80079119 23785
