<?xml version="1.0" encoding="UTF-8"?>
<ndm xmlns:xsi="http://www.w3.org/2001/XMLSchema-instance" xsi:noNamespaceSchemaLocation="https://sanaregistry.org/r/ndmxml_unqualified/ndmxml-2.0.0-master-2.0.xsd">
<omm id="CCSDS_OMM_VERS" version="2.0">
<header><CREATION_DATE/><ORIGINATOR/></header><body><segment><metadata><OBJECT_NAME>KUIPER-00079</OBJECT_NAME><OBJECT_ID>2025-151L</OBJECT_ID><CENTER_NAME>EARTH</CENTER_NAME><REF_FRAME>TEME</REF_FRAME><TIME_SYSTEM>UTC</TIME_SYSTEM><MEAN_ELEMENT_THEORY>SGP4</MEAN_ELEMENT_THEORY></metadata><data><meanElements><EPOCH>2025-12-20T03:24:56.892096</EPOCH><MEAN_MOTION>14.79896382</MEAN_MOTION><ECCENTRICITY>.0011843</ECCENTRICITY><INCLINATION>51.9003</INCLINATION><RA_OF_ASC_NODE>292.3280</RA_OF_ASC_NODE><ARG_OF_PERICENTER>339.9441</ARG_OF_PERICENTER><MEAN_ANOMALY>20.1054</MEAN_ANOMALY></meanElements><tleParameters><EPHEMERIS_TYPE>0</EPHEMERIS_TYPE><CLASSIFICATION_TYPE>U</CLASSIFICATION_TYPE><NORAD_CAT_ID>64826</NORAD_CAT_ID><ELEMENT_SET_NO>999</ELEMENT_SET_NO><REV_AT_EPOCH>2472</REV_AT_EPOCH><BSTAR>.45269E-3</BSTAR><MEAN_MOTION_DOT>.323E-4</MEAN_MOTION_DOT><MEAN_MOTION_DDOT>0</MEAN_MOTION_DDOT></tleParameters></data></segment></body></omm>
<omm id="CCSDS_OMM_VERS" version="2.0">
<header><CREATION_DATE/><ORIGINATOR/></header><body><segment><metadata><OBJECT_NAME>KUIPER-00080</OBJECT_NAME><OBJECT_ID>2025-151M</OBJECT_ID><CENTER_NAME>EARTH</CENTER_NAME><REF_FRAME>TEME</REF_FRAME><TIME_SYSTEM>UTC</TIME_SYSTEM><MEAN_ELEMENT_THEORY>SGP4</MEAN_ELEMENT_THEORY></metadata><data><meanElements><EPOCH>2025-12-20T02:36:21.023424</EPOCH><MEAN_MOTION>14.79964142</MEAN_MOTION><ECCENTRICITY>.0006054</ECCENTRICITY><INCLINATION>51.9006</INCLINATION><RA_OF_ASC_NODE>292.4818</RA_OF_ASC_NODE><ARG_OF_PERICENTER>0.8778</ARG_OF_PERICENTER><MEAN_ANOMALY>359.2194</MEAN_ANOMALY></meanElements><tleParameters><EPHEMERIS_TYPE>0</EPHEMERIS_TYPE><CLASSIFICATION_TYPE>U</CLASSIFICATION_TYPE><NORAD_CAT_ID>64827</NORAD_CAT_ID><ELEMENT_SET_NO>999</ELEMENT_SET_NO><REV_AT_EPOCH>2352</REV_AT_EPOCH><BSTAR>.78435E-3</BSTAR><MEAN_MOTION_DOT>.5768E-4</MEAN_MOTION_DOT><MEAN_MOTION_DDOT>0</MEAN_MOTION_DDOT></tleParameters></data></segment></body></omm>
<omm id="CCSDS_OMM_VERS" version="2.0">
<header><CREATION_DATE/><ORIGINATOR/></header><body><segment><metadata><OBJECT_NAME>KUIPER-00082</OBJECT_NAME><OBJECT_ID>2025-151N</OBJECT_ID><CENTER_NAME>EARTH</CENTER_NAME><REF_FRAME>TEME</REF_FRAME><TIME_SYSTEM>UTC</TIME_SYSTEM><MEAN_ELEMENT_THEORY>SGP4</MEAN_ELEMENT_THEORY></metadata><data><meanElements><EPOCH>2025-12-20T03:44:15.423648</EPOCH><MEAN_MOTION>14.79952232</MEAN_MOTION><ECCENTRICITY>.0005454</ECCENTRICITY><INCLINATION>51.9020</INCLINATION><RA_OF_ASC_NODE>279.7887</RA_OF_ASC_NODE><ARG_OF_PERICENTER>27.9691</ARG_OF_PERICENTER><MEAN_ANOMALY>332.1564</MEAN_ANOMALY></meanElements><tleParameters><EPHEMERIS_TYPE>0</EPHEMERIS_TYPE><CLASSIFICATION_TYPE>U</CLASSIFICATION_TYPE><NORAD_CAT_ID>64828</NORAD_CAT_ID><ELEMENT_SET_NO>999</ELEMENT_SET_NO><REV_AT_EPOCH>2370</REV_AT_EPOCH><BSTAR>.49744E-3</BSTAR><MEAN_MOTION_DOT>.3574E-4</MEAN_MOTION_DOT><MEAN_MOTION_DDOT>0</MEAN_MOTION_DDOT></tleParameters></data></segment></body></omm>
<omm id="CCSDS_OMM_VERS" version="2.0">
<header><CREATION_DATE/><ORIGINATOR/></header><body><segment><metadata><OBJECT_NAME>KUIPER-00083</OBJECT_NAME><OBJECT_ID>2025-151P</OBJECT_ID><CENTER_NAME>EARTH</CENTER_NAME><REF_FRAME>TEME</REF_FRAME><TIME_SYSTEM>UTC</TIME_SYSTEM><MEAN_ELEMENT_THEORY>SGP4</MEAN_ELEMENT_THEORY></metadata><data><meanElements><EPOCH>2025-12-20T00:18:03.037824</EPOCH><MEAN_MOTION>14.79973271</MEAN_MOTION><ECCENTRICITY>.0011407</ECCENTRICITY><INCLINATION>51.9020</INCLINATION><RA_OF_ASC_NODE>287.9154</RA_OF_ASC_NODE><ARG_OF_PERICENTER>339.1380</ARG_OF_PERICENTER><MEAN_ANOMALY>20.9115</MEAN_ANOMALY></meanElements><tleParameters><EPHEMERIS_TYPE>0</EPHEMERIS_TYPE><CLASSIFICATION_TYPE>U</CLASSIFICATION_TYPE><NORAD_CAT_ID>64829</NORAD_CAT_ID><ELEMENT_SET_NO>999</ELEMENT_SET_NO><REV_AT_EPOCH>2476</REV_AT_EPOCH><BSTAR>.30515E-3</BSTAR><MEAN_MOTION_DOT>.2108E-4</MEAN_MOTION_DOT><MEAN_MOTION_DDOT>0</MEAN_MOTION_DDOT></tleParameters></data></segment></body></omm>
<omm id="CCSDS_OMM_VERS" version="2.0">
<header><CREATION_DATE/><ORIGINATOR/></header><body><segment><metadata><OBJECT_NAME>KUIPER-00084</OBJECT_NAME><OBJECT_ID>2025-151Q</OBJECT_ID><CENTER_NAME>EARTH</CENTER_NAME><REF_FRAME>TEME</REF_FRAME><TIME_SYSTEM>UTC</TIME_SYSTEM><MEAN_ELEMENT_THEORY>SGP4</MEAN_ELEMENT_THEORY></metadata><data><meanElements><EPOCH>2025-12-20T03:16:08.170752</EPOCH><MEAN_MOTION>14.80043501</MEAN_MOTION><ECCENTRICITY>.0011859</ECCENTRICITY><INCLINATION>51.9016</INCLINATION><RA_OF_ASC_NODE>297.3483</RA_OF_ASC_NODE><ARG_OF_PERICENTER>314.2523</ARG_OF_PERICENTER><MEAN_ANOMALY>45.7465</MEAN_ANOMALY></meanElements><tleParameters><EPHEMERIS_TYPE>0</EPHEMERIS_TYPE><CLASSIFICATION_TYPE>U</CLASSIFICATION_TYPE><NORAD_CAT_ID>64830</NORAD_CAT_ID><ELEMENT_SET_NO>999</ELEMENT_SET_NO><REV_AT_EPOCH>2345</REV_AT_EPOCH><BSTAR>.34005E-3</BSTAR><MEAN_MOTION_DOT>.2379E-4</MEAN_MOTION_DOT><MEAN_MOTION_DDOT>0</MEAN_MOTION_DDOT></tleParameters></data></segment></body></omm>
<omm id="CCSDS_OMM_VERS" version="2.0">
<header><CREATION_DATE/><ORIGINATOR/></header><body><segment><metadata><OBJECT_NAME>KUIPER-00085</OBJECT_NAME><OBJECT_ID>2025-151R</OBJECT_ID><CENTER_NAME>EARTH</CENTER_NAME><REF_FRAME>TEME</REF_FRAME><TIME_SYSTEM>UTC</TIME_SYSTEM><MEAN_ELEMENT_THEORY>SGP4</MEAN_ELEMENT_THEORY></metadata><data><meanElements><EPOCH>2025-12-20T01:18:32.986944</EPOCH><MEAN_MOTION>14.79866659</MEAN_MOTION><ECCENTRICITY>.0007795</ECCENTRICITY><INCLINATION>51.9042</INCLINATION><RA_OF_ASC_NODE>280.2514</RA_OF_ASC_NODE><ARG_OF_PERICENTER>358.7382</ARG_OF_PERICENTER><MEAN_ANOMALY>1.3559</MEAN_ANOMALY></meanElements><tleParameters><EPHEMERIS_TYPE>0</EPHEMERIS_TYPE><CLASSIFICATION_TYPE>U</CLASSIFICATION_TYPE><NORAD_CAT_ID>64831</NORAD_CAT_ID><ELEMENT_SET_NO>999</ELEMENT_SET_NO><REV_AT_EPOCH>2368</REV_AT_EPOCH><BSTAR>.50556E-3</BSTAR><MEAN_MOTION_DOT>.3629E-4</MEAN_MOTION_DOT><MEAN_MOTION_DDOT>0</MEAN_MOTION_DDOT></tleParameters></data></segment></body></omm>
<omm id="CCSDS_OMM_VERS" version="2.0">
<header><CREATION_DATE/><ORIGINATOR/></header><body><segment><metadata><OBJECT_NAME>KUIPER-00086</OBJECT_NAME><OBJECT_ID>2025-151S</OBJECT_ID><CENTER_NAME>EARTH</CENTER_NAME><REF_FRAME>TEME</REF_FRAME><TIME_SYSTEM>UTC</TIME_SYSTEM><MEAN_ELEMENT_THEORY>SGP4</MEAN_ELEMENT_THEORY></metadata><data><meanElements><EPOCH>2025-12-20T02:40:09.727680</EPOCH><MEAN_MOTION>14.79932763</MEAN_MOTION><ECCENTRICITY>.0010913</ECCENTRICITY><INCLINATION>51.9021</INCLINATION><RA_OF_ASC_NODE>289.9869</RA_OF_ASC_NODE><ARG_OF_PERICENTER>339.0131</ARG_OF_PERICENTER><MEAN_ANOMALY>21.0382</MEAN_ANOMALY></meanElements><tleParameters><EPHEMERIS_TYPE>0</EPHEMERIS_TYPE><CLASSIFICATION_TYPE>U</CLASSIFICATION_TYPE><NORAD_CAT_ID>64832</NORAD_CAT_ID><ELEMENT_SET_NO>999</ELEMENT_SET_NO><REV_AT_EPOCH>2355</REV_AT_EPOCH><BSTAR>.50501E-3</BSTAR><MEAN_MOTION_DOT>.3632E-4</MEAN_MOTION_DOT><MEAN_MOTION_DDOT>0</MEAN_MOTION_DDOT></tleParameters></data></segment></body></omm>
<omm id="CCSDS_OMM_VERS" version="2.0">
<header><CREATION_DATE/><ORIGINATOR/></header><body><segment><metadata><OBJECT_NAME>KUIPER-00087</OBJECT_NAME><OBJECT_ID>2025-151T</OBJECT_ID><CENTER_NAME>EARTH</CENTER_NAME><REF_FRAME>TEME</REF_FRAME><TIME_SYSTEM>UTC</TIME_SYSTEM><MEAN_ELEMENT_THEORY>SGP4</MEAN_ELEMENT_THEORY></metadata><data><meanElements><EPOCH>2025-12-20T01:28:34.399200</EPOCH><MEAN_MOTION>14.80079119</MEAN_MOTION><ECCENTRICITY>.0001323</ECCENTRICITY><INCLINATION>51.8997</INCLINATION><RA_OF_ASC_NODE>272.6877</RA_OF_ASC_NODE><ARG_OF_PERICENTER>44.0115</ARG_OF_PERICENTER><MEAN_ANOMALY>316.0953</MEAN_ANOMALY></meanElements><tleParameters><EPHEMERIS_TYPE>0</EPHEMERIS_TYPE><CLASSIFICATION_TYPE>U</CLASSIFICATION_TYPE><NORAD_CAT_ID>64833</NORAD_CAT_ID><ELEMENT_SET_NO>999</ELEMENT_SET_NO><REV_AT_EPOCH>2378</REV_AT_EPOCH><BSTAR>.28872E-3</BSTAR><MEAN_MOTION_DOT>.1988E-4</MEAN_MOTION_DOT><MEAN_MOTION_DDOT>0</MEAN_MOTION_DDOT></tleParameters></data></segment></body></omm>

</ndm>
